$$SOE
2460721.500000000, A.D. 2025-Feb-15 00:00:00.0000, -2.202426434556915E+08, -2.986755444456779E+08, 1.860719943986490E+06,
2460728.500000000, A.D. 2025-Feb-22 00:00:00.0000, -2.122345590581606E+08, -3.059671698727897E+08, 1.990210185427621E+06,
2460735.500000000, A.D. 2025-Mar-01 00:00:00.0000, -2.040269297860044E+08, -3.129712170474816E+08, 2.117829678990662E+06,
2460742.500000000, A.D. 2025-Mar-08 00:00:00.0000, -1.956293604481958E+08, -3.196840011787258E+08, 2.243477749426797E+06,
2460749.500000000, A.D. 2025-Mar-15 00:00:00.0000, -1.870513945745205E+08, -3.261020982231130E+08, 2.367056955414712E+06,
2460756.500000000, A.D. 2025-Mar-22 00:00:00.0000, -1.783025151389377E+08, -3.322223340102206E+08, 2.488473229400739E+06,
2460763.500000000, A.D. 2025-Mar-29 00:00:00.0000, -1.693921444193771E+08, -3.380417761457521E+08, 2.607635710791484E+06,
2460770.500000000, A.D. 2025-Apr-05 00:00:00.0000, -1.603296426234662E+08, -3.435577255519515E+08, 2.724456499191716E+06,
2460777.500000000, A.D. 2025-Apr-12 00:00:00.0000, -1.511243071644116E+08, -3.487677075357720E+08, 2.838850512986675E+06,
2460784.500000000, A.D. 2025-Apr-19 00:00:00.0000, -1.417853727354775E+08, -3.536694632581216E+08, 2.950735398516506E+06,
2460791.500000000, A.D. 2025-Apr-26 00:00:00.0000, -1.323220118755592E+08, -3.582609417971584E+08, 3.060031448349252E+06,
2460798.500000000, A.D. 2025-May-03 00:00:00.0000, -1.227433358786951E+08, -3.625402927746978E+08, 3.166661519720927E+06,
2460805.500000000, A.D. 2025-May-10 00:00:00.0000, -1.130583959873034E+08, -3.665058595240695E+08, 3.270550951147646E+06,
2460812.500000000, A.D. 2025-May-17 00:00:00.0000, -1.032761848017493E+08, -3.701561728269988E+08, 3.371627470355943E+06,
2460819.500000000, A.D. 2025-May-24 00:00:00.0000, -9.340563770236123E+07, -3.734899452623049E+08, 3.469821072837144E+06,
2460826.500000000, A.D. 2025-May-31 00:00:00.0000, -8.345563383881894E+07, -3.765060658473196E+08, 3.565063857790262E+06,
2460833.500000000, A.D. 2025-Jun-07 00:00:00.0000, -7.343499706526035E+07, -3.792035937607377E+08, 3.657289956577420E+06,
2460840.500000000, A.D. 2025-Jun-14 00:00:00.0000, -6.335249916645392E+07, -3.815817518049266E+08, 3.746435716135949E+06,
2460847.500000000, A.D. 2025-Jun-21 00:00:00.0000, -5.321686413926994E+07, -3.836399228683245E+08, 3.832439758434892E+06,
2460854.500000000, A.D. 2025-Jun-28 00:00:00.0000, -4.303677038236687E+07, -3.853776476142867E+08, 3.915242773413062E+06,
2460861.500000000, A.D. 2025-Jul-05 00:00:00.0000, -3.282085229309818E+07, -3.867946212322994E+08, 3.994787361043990E+06,
2460868.500000000, A.D. 2025-Jul-12 00:00:00.0000, -2.257770244606009E+07, -3.878906900497147E+08, 4.071017966212749E+06,
2460875.500000000, A.D. 2025-Jul-19 00:00:00.0000, -1.231587414872156E+07, -3.886658485726504E+08, 4.143880842214227E+06,
2460882.500000000, A.D. 2025-Jul-26 00:00:00.0000, -2.043884150868324E+06, -3.891202370062857E+08, 4.213324019103020E+06,
2460889.500000000, A.D. 2025-Aug-02 00:00:00.0000, 8.229784570201246E+06, -3.892541392262524E+08, 4.279297272648931E+06,
2460896.500000000, A.D. 2025-Aug-09 00:00:00.0000, 1.849667998489065E+07, -3.890679812097543E+08, 4.341752090528071E+06,
2460903.500000000, A.D. 2025-Aug-16 00:00:00.0000, 2.874837823619122E+07, -3.885623299851619E+08, 4.400641623698354E+06,
2460910.500000000, A.D. 2025-Aug-23 00:00:00.0000, 3.897648121816909E+07, -3.877378930801268E+08, 4.455920597847104E+06,
2460917.500000000, A.D. 2025-Aug-30 00:00:00.0000, 4.917261484755675E+07, -3.865955177509027E+08, 4.507545213522553E+06,
2460924.500000000, A.D. 2025-Sep-06 00:00:00.0000, 5.932842662052745E+07, -3.851361889888825E+08, 4.555473247113079E+06,
2460931.500000000, A.D. 2025-Sep-13 00:00:00.0000, 6.943558079453808E+07, -3.833610287824471E+08, 4.599664303141832E+06,
2460938.500000000, A.D. 2025-Sep-20 00:00:00.0000, 7.948575448057286E+07, -3.812712982749619E+08, 4.640079783314824E+06,
2460945.500000000, A.D. 2025-Sep-27 00:00:00.0000, 8.947063571665968E+07, -3.788683997071368E+08, 4.676682729788065E+06,
2460952.500000000, A.D. 2025-Oct-04 00:00:00.0000, 9.938192151742068E+07, -3.761538776052843E+08, 4.709437772063687E+06,
2460959.500000000, A.D. 2025-Oct-11 00:00:00.0000, 1.092113155373868E+08, -3.731294201588900E+08, 4.738311134993002E+06,
2460966.500000000, A.D. 2025-Oct-18 00:00:00.0000, 1.189505256434744E+08, -3.697968610625225E+08, 4.763270659617275E+06,
2460973.500000000, A.D. 2025-Oct-25 00:00:00.0000, 1.285912615480871E+08, -3.661581818119293E+08, 4.784285825021654E+06,
2460980.500000000, A.D. 2025-Nov-01 00:00:00.0000, 1.381252325546447E+08, -3.622155144393904E+08, 4.801327768739432E+06,
2460987.500000000, A.D. 2025-Nov-08 00:00:00.0000, 1.475441454638508E+08, -3.579711447201889E+08, 4.814369299705446E+06,
2460994.500000000, A.D. 2025-Nov-15 00:00:00.0000, 1.568397028042618E+08, -3.534275159105341E+08, 4.823384885236263E+06,
2461001.500000000, A.D. 2025-Nov-22 00:00:00.0000, 1.660036018065675E+08, -3.485872328008668E+08, 4.828350593184635E+06,
2461008.500000000, A.D. 2025-Nov-29 00:00:00.0000, 1.750275339849916E+08, -3.434530649547104E+08, 4.829244096286505E+06,
2461015.500000000, A.D. 2025-Dec-06 00:00:00.0000, 1.839031830648284E+08, -3.380279492730507E+08, 4.826044936502144E+06,
2461022.500000000, A.D. 2025-Dec-13 00:00:00.0000, 1.926222217075844E+08, -3.323149952560773E+08, 4.818734733893871E+06,
2461029.500000000, A.D. 2025-Dec-20 00:00:00.0000, 2.011763105482908E+08, -3.263174919412581E+08, 4.807297103127703E+06,
2461036.500000000, A.D. 2025-Dec-27 00:00:00.0000, 2.095570984949740E+08, -3.200389139314972E+08, 4.791717588132665E+06,
2461043.500000000, A.D. 2026-Jan-03 00:00:00.0000, 2.177562228554391E+08, -3.134829271346766E+08, 4.771983698910564E+06,
2461050.500000000, A.D. 2026-Jan-10 00:00:00.0000, 2.257653094260024E+08, -3.066533948985831E+08, 4.748084985443056E+06,
2461057.500000000, A.D. 2026-Jan-17 00:00:00.0000, 2.335759727998522E+08, -2.995543846368175E+08, 4.720013120349348E+06,
2461064.500000000, A.D. 2026-Jan-24 00:00:00.0000, 2.411798169981331E+08, -2.921901749246550E+08, 4.687761985257804E+06,
2461071.500000000, A.D. 2026-Jan-31 00:00:00.0000, 2.485684364736804E+08, -2.845652630698879E+08, 4.651327757966861E+06,
2461078.500000000, A.D. 2026-Feb-07 00:00:00.0000, 2.557334175799885E+08, -2.766843732097602E+08, 4.610708989548206E+06,
2461085.500000000, A.D. 2026-Feb-14 00:00:00.0000, 2.626663407974763E+08, -2.685524649428706E+08, 4.565906646669164E+06,
2461092.500000000, A.D. 2026-Feb-21 00:00:00.0000, 2.693587841506426E+08, -2.601747419175552E+08, 4.516924131398201E+06,
2461099.500000000, A.D. 2026-Feb-28 00:00:00.0000, 2.758023267784600E+08, -2.515566592267112E+08, 4.463767473499969E+06,
2461106.500000000, A.D. 2026-Mar-07 00:00:00.0000, 2.819885506433318E+08, -2.427039315602077E+08, 4.406445725478947E+06,
2461113.500000000, A.D. 2026-Mar-14 00:00:00.0000, 2.879090431976616E+08, -2.336225444408785E+08, 4.344971115270436E+06,
2461120.500000000, A.D. 2026-Mar-21 00:00:00.0000, 2.935554028394855E+08, -2.243187656345779E+08, 4.279359030022696E+06,
2461127.500000000, A.D. 2026-Mar-28 00:00:00.0000, 2.989192452014108E+08, -2.147991556923780E+08, 4.209628099694327E+06,
2461134.500000000, A.D. 2026-Apr-04 00:00:00.0000, 3.039922097258950E+08, -2.050705785740101E+08, 4.135800357275620E+06,
2461141.500000000, A.D. 2026-Apr-11 00:00:00.0000, 3.087659668607782E+08, -1.951402126916168E+08, 4.057901421413228E+06,
2461148.500000000, A.D. 2026-Apr-18 00:00:00.0000, 3.132322260980060E+08, -1.850155623550760E+08, 3.975960686615445E+06,
2461155.500000000, A.D. 2026-Apr-25 00:00:00.0000, 3.173827449686121E+08, -1.747044695739361E+08, 3.890011518379368E+06,
2461162.500000000, A.D. 2026-May-02 00:00:00.0000, 3.212093390946905E+08, -1.642151262099519E+08, 3.800091448246211E+06,
2461169.500000000, A.D. 2026-May-09 00:00:00.0000, 3.247038934942914E+08, -1.535560865037596E+08, 3.706242351853266E+06,
2461176.500000000, A.D. 2026-May-16 00:00:00.0000, 3.278583755904090E+08, -1.427362797847163E+08, 3.608510586268976E+06,
2461183.500000000, A.D. 2026-May-23 00:00:00.0000, 3.306648500555541E+08, -1.317650222797731E+08, 3.506947165510111E+06,
2461190.500000000, A.D. 2026-May-30 00:00:00.0000, 3.331154934987953E+08, -1.206520276357427E+08, 3.401608191465057E+06,
2461197.500000000, A.D. 2026-Jun-06 00:00:00.0000, 3.352026087596301E+08, -1.094074193542467E+08, 3.292555301373594E+06,
2461204.500000000, A.D. 2026-Jun-13 00:00:00.0000, 3.369186425525376E+08, -9.804174485009825E+07, 3.179855810724437E+06,
2461211.500000000, A.D. 2026-Jun-20 00:00:00.0000, 3.382562060422997E+08, -8.656598810302651E+07, 3.063582835744321E+06,
2461218.500000000, A.D. 2026-Jun-27 00:00:00.0000, 3.392080967342620E+08, -7.499158112743479E+07, 2.943815522646662E+06,
2461225.500000000, A.D. 2026-Jul-04 00:00:00.0000, 3.397673217592517E+08, -6.333041490634008E+07, 2.820639319226991E+06,
2461232.500000000, A.D. 2026-Jul-11 00:00:00.0000, 3.399271228827341E+08, -5.159484977710088E+07, 2.694146253389034E+06,
2461239.500000000, A.D. 2026-Jul-18 00:00:00.0000, 3.396810034013052E+08, -3.979772508231471E+07, 2.564435210662307E+06,
2461246.500000000, A.D. 2026-Jul-25 00:00:00.0000, 3.390227570146284E+08, -2.795236790494242E+07, 2.431612207003126E+06,
2461253.500000000, A.D. 2026-Aug-01 00:00:00.0000, 3.379464987758781E+08, -1.607260074000517E+07, 2.295790646642851E+06,
2461260.500000000, A.D. 2026-Aug-08 00:00:00.0000, 3.364466983776377E+08, -4.172747925698615E+06, 2.157091539950988E+06,
2461267.500000000, A.D. 2026-Aug-15 00:00:00.0000, 3.345182162108926E+08, 7.732359849548603E+06, 2.015643676975465E+06,
2461274.500000000, A.D. 2026-Aug-22 00:00:00.0000, 3.321563414421166E+08, 1.962738444388042E+07, 1.871583923661455E+06,
2461281.500000000, A.D. 2026-Aug-29 00:00:00.0000, 3.293568298163866E+08, 3.149648146617704E+07, 1.725057736591745E+06,
2461288.500000000, A.D. 2026-Sep-05 00:00:00.0000, 3.261159432897055E+08, 4.332330120640713E+07, 1.576219462684002E+06,
$$EOE